ARCSTONE                
1 64540U 25135N   26068.88991918  .00026427  00000+0  94900-3 0  9995
2 64540  97.4495 185.9194 0004120 166.7863 193.3485 15.28638458 39847
STARLINK-36146          
1 67426U 26005Y   26068.50435436  .00032894  00000+0  11988-2 0  9994
2 67426  42.9999 239.4128 0002068 283.3401  76.7220 15.27600398  8659
